OSCAR 7 (AO-7)          
1 07530U 74089B   26196.94973507 -.00000036  00000+0  65216-4 0  9994
2 07530 101.9906 210.4961 0012657  76.9392 343.4576 12.53698592364121
PHASE 3B (AO-10)        
1 14129U 83058B   26194.10401075 -.00000187  00000+0  00000+0 0  9996
2 14129  25.9345 215.2934 6002223 122.7887 309.2966  2.05872336296023
UOSAT 2 (UO-11)         
1 14781U 84021B   26196.88103811  .00000507  00000+0  57146-4 0  9998
2 14781  97.8076 162.1394 0009245  89.5955 270.6323 14.90849798261402
LUSAT (LO-19)           
1 20442U 90005G   26196.92659552  .00000033  00000+0  28401-4 0  9997
2 20442  98.8847 219.5232 0012559 119.4389 240.8050 14.34130864906513
EYESAT A (AO-27)        
1 22825U 93061C   26196.73849277  .00000042  00000+0  32983-4 0  9993
2 22825  98.6868 264.1397 0008734  24.3720 335.7874 14.30949162711081
ITAMSAT (IO-26)         
1 22826U 93061D   26196.77928505  .00000043  00000+0  32967-4 0  9993
2 22826  98.6815 264.1009 0008926   7.7103 352.4216 14.31376772711401
RADIO ROSTO (RS15)      
1 23439U 94085A   26196.85124533 -.00000039  00000+0  99136-4 0  9996
2 23439  64.8150 256.8596 0156942 358.5901   1.4561 11.27583522299133
JAS-2 (FO-29)           
1 24278U 96046B   26196.55347070  .00000004  00000+0  39317-4 0  9993
2 24278  98.5219  41.5371 0350345  23.0121 338.6291 13.53275706477008
TECHSAT 1B (GO-32)      
1 25397U 98043D   26196.93420812  .00000003  00000+0  21470-4 0  9993
2 25397  99.0086 190.4201 0002197 113.5065 246.6344 14.24433441455426
ISS (ZARYA)             
1 25544U 98067A   26196.76640667  .00004078  00000+0  82095-4 0  9992
2 25544  51.6311 158.6576 0006718 300.0875  59.9447 15.49019038576187
PCSAT (NO-44)           
1 26931U 01043C   26196.93551833  .00000014  00000+0  36086-4 0  9991
2 26931  67.0495 169.9146 0005919 266.6898  93.3527 14.31965180294562
SAUDISAT 1C (SO-50)     
1 27607U 02058C   26196.94834782  .00000353  00000+0  59747-4 0  9992
2 27607  64.5518  39.9948 0074507 257.1241 102.1534 14.83099100268726
CUTE-1 (CO-55)          
1 27844U 03031E   26196.97918347  .00000131  00000+0  75469-4 0  9993
2 27844  98.6744 205.1765 0010840 100.6537 259.5863 14.24351837195771
CUBESAT XI-IV (CO-57)   
1 27848U 03031J   26196.98211364  .00000105  00000+0  65012-4 0  9997
2 27848  98.6774 204.8688 0010566 117.3488 242.8767 14.23634777195474
MOZHAETS 4 (RS22)       
1 27939U 03042A   26196.95186755  .00000360  00000+0  63703-4 0  9990
2 27939  98.3467  22.1248 0011269 170.8794 331.2357 14.73514850219782
CUBESAT XI-V            
1 28895U 05043F   26196.93934947  .00000649  00000+0  10996-3 0  9992
2 28895  98.3016 353.1708 0015281 113.0525 247.2294 14.72703396105987
CUTE-1.7+APD II (CO-65) 
1 32785U 08021C   26196.95007741  .00002610  00000+0  16607-3 0  9994
2 32785  97.8294 178.9751 0006947 296.4052  63.6463 15.09705410989532
SEEDS II (CO-66)        
1 32791U 08021J   26196.98191950  .00009999  00000+0  30950-3 0  9994
2 32791  97.7522 196.2767 0003155 154.4118 205.7280 15.33682976991702
YUBILEINY (RS30)        
1 32953U 08025A   26196.90961387 -.00000032  00000+0 -30138-3 0  9998
2 32953  82.5059 337.5718 0018604 247.3135 112.5978 12.43180562823267
KKS-1 (KISEKI)          
1 33499U 09002H   26196.86159801  .00000586  00000+0  78581-4 0  9992
2 33499  98.1173 119.7581 0007487 186.6441 173.4674 14.83190100940447
SWISSCUBE               
1 35932U 09051B   26195.74040393  .00000468  00000+0  10206-3 0  9999
2 35932  98.4008 104.1063 0007823 120.2894 239.9082 14.62530263893188
BEESAT-1                
1 35933U 09051C   26196.31185738  .00000377  00000+0  85523-4 0  9991
2 35933  98.3935 104.2639 0006132 129.5089 230.6654 14.61761931893299
ITUPSAT1                
1 35935U 09051E   26196.19038705  .00000349  00000+0  82054-4 0  9995
2 35935  98.4018 103.3025 0008086 143.1681 217.0076 14.60478742892822
XIWANG-1 (HOPE-1)       
1 36122U 09072B   26196.97154583  .00000038  00000+0  21639-3 0  9992
2 36122 100.4038 150.3461 0007554 162.9535 197.1833 13.16440831796795
O/OREOS (USA 219)       
1 37224U 10062C   26196.92499132  .00001000  00000+0  99967-4 0  9994
2 37224  71.9698  15.2352 0013998   3.6363 356.4907 14.93853123120937
JUGNU                   
1 37839U 11058B   26196.95274693  .00000341  00000+0  38720-4 0  9995
2 37839  19.9595 133.6606 0018597  34.8190  32.5603 14.13783587763103
SRMSAT                  
1 37841U 11058D   26196.43842265  .00000333  00000+0  37014-4 0  9993
2 37841  19.9710 248.4743 0011765 153.8769 331.6515 14.11581130761815
STRAND-1                
1 39090U 13009E   26196.74002715  .00000123  00000+0  55624-4 0  9995
2 39090  98.3935  16.2735 0009437 139.6200 220.5689 14.37179078701162
ZACUBE-1 (TSHEPISOSAT)  
1 39417U 13066B   26196.93443539  .00001227  00000+0  98253-4 0  9996
2 39417  97.8008 159.4128 0044056 152.8424 207.5118 15.01330710685041
GOMX-1                  
1 39430U 13066Q   26196.92019763  .00000712  00000+0  11369-3 0  9998
2 39430  97.6465  35.5696 0128184 345.8791  13.8845 14.69543972674133
